     2.100          NAVIGATION                              RINEX VERSION / TYPE
fic2rin                                 12/12/2010 00:11:46 PGM / RUN BY / DATE
                                                            END OF HEADER
 3 10 12 11 20  0  0.0  .647261273116D-03  .522959453519D-11  .000000000000D+00
     .290000000000D+02 -.390625000000D+02  .522093175848D-08 -.960916451536D+00
    -.182166695595D-05  .138605207903D-01  .902079045773D-05  .515363128090D+04
     .590400000000D+06  .540167093277D-07  .966691534240D+00  .311061739922D-06
     .927914675691D+00  .188468750000D+03  .106481988627D+01 -.847035282419D-08
     .942896418278D-10  .100000000000D+01  .161300000000D+04  .000000000000D+00
     .240000000000D+01  .000000000000D+00 -.465661287308D-08  .290000000000D+02
     .583206000000D+06  .400000000000D+01
 4 10 12 11 20  0  0.0  .242327805609D-03  .977706804406D-11  .000000000000D+00
     .139000000000D+03  .340312500000D+02  .531557855804D-08  .206855707790D+01
     .172294676304D-05  .952269206755D-02  .791065394878D-05  .515379650879D+04
     .590400000000D+06 -.195577740669D-06  .213999568478D+01 -.726431608200D-07
     .938160895401D+00  .216906250000D+03  .690055962252D+00 -.833320425426D-08
     .245010205659D-09  .100000000000D+01  .161300000000D+04  .000000000000D+00
     .340000000000D+01  .000000000000D+00 -.605359673500D-08  .139000000000D+03
     .583206000000D+06  .400000000000D+01
 6 10 12 11 20  0  0.0  .394079368562D-03 -.100044417195D-10  .000000000000D+00
     .700000000000D+02 -.412500000000D+02  .499877964781D-08  .117238615921D+01
    -.224635004997D-05  .621875433717D-02  .907853245735D-05  .515365942955D+04
     .590400000000D+06  .143423676491D-06  .103895475001D+01 -.102445483208D-06
     .935089495968D+00  .191125000000D+03 -.898605192433D+00 -.823034282681D-08
     .125005206969D-09  .100000000000D+01  .161300000000D+04  .000000000000D+00
     .240000000000D+01  .000000000000D+00 -.465661287308D-08  .700000000000D+02
     .583206000000D+06  .400000000000D+01
 7 10 12 11 20  0  0.0  .271946191788D-06  .454747350886D-12  .000000000000D+00
     .140000000000D+02  .344375000000D+02  .425053419467D-08 -.261119235247D+01
     .174529850483D-05  .417501130141D-02  .524148344994D-05  .515368210030D+04
     .590400000000D+06 -.931322574615D-08 -.996680782864D+00  .000000000000D+00
     .973256585392D+00  .286406250000D+03 -.311011008013D+01 -.805426406386D-08
     .195008122871D-09  .100000000000D+01  .161300000000D+04  .000000000000D+00
     .240000000000D+01  .000000000000D+00 -.102445483208D-07  .140000000000D+02
     .583206000000D+06  .400000000000D+01
 8 10 12 11 20  0  0.0  .703521072865D-05  .000000000000D+00  .000000000000D+00
     .680000000000D+02  .271250000000D+02  .377301430405D-08  .312757015663D+01
     .131875276566D-05  .114853394916D-01  .531412661076D-05  .515363999367D+04
     .590400000000D+06 -.113621354103D-06 -.924629012887D+00 -.149011611938D-07
     .994826216745D+00  .296250000000D+03 -.310208987753D+01 -.772853621027D-08
     .167149819604D-09  .100000000000D+01  .161300000000D+04  .000000000000D+00
     .340000000000D+01  .000000000000D+00 -.419095158577D-08  .680000000000D+02
     .583206000000D+06  .400000000000D+01
 9 10 12 11 20  0  0.0  .481158494949D-04  .238742359215D-11  .000000000000D+00
     .200000000000D+02  .354062500000D+02  .394873590927D-08  .301122872028D+01
     .194646418095D-05  .169705988374D-01  .572577118874D-05  .515369287109D+04
     .590400000000D+06  .236555933952D-06 -.102639085552D+01 -.596046447754D-07
     .982243007347D+00  .277312500000D+03  .155442116790D+01 -.767639118108D-08
     .148577617426D-09  .100000000000D+01  .161300000000D+04  .000000000000D+00
     .240000000000D+01  .000000000000D+00 -.558793544769D-08  .200000000000D+02
     .583206000000D+06  .400000000000D+01
10 10 12 11 20  0  0.0 -.600507482886D-04 -.909494701773D-12  .000000000000D+00
     .880000000000D+02  .100625000000D+02  .506592530184D-08  .101878768405D+01
     .756233930588D-06  .978885940276D-02  .677071511745D-05  .515354647064D+04
     .590400000000D+06 -.391155481339D-07 -.307539610351D+01  .130385160446D-06
     .951320545725D+00  .244031250000D+03  .675444920181D+00 -.842999400023D-08
    -.411088552060D-09  .100000000000D+01  .161300000000D+04  .000000000000D+00
     .485000000000D+01  .000000000000D+00 -.279396772385D-08  .880000000000D+02
     .583206000000D+06  .400000000000D+01
12 10 12 11 20  0  0.0 -.457507558167D-04  .341060513165D-11  .000000000000D+00
     .230000000000D+02 -.599687500000D+02  .426624913497D-08 -.250067794558D+01
    -.306405127048D-05  .337356142700D-02  .555627048016D-05  .515354624939D+04
     .590400000000D+06 -.447034835815D-07  .575993023736D-01  .577419996262D-07
     .973487989774D+00  .278718750000D+03 -.327691137926D+00 -.805854995667D-08
    -.239295681911D-10  .100000000000D+01  .161300000000D+04  .000000000000D+00
     .240000000000D+01  .000000000000D+00 -.116415321827D-07  .230000000000D+02
     .583206000000D+06  .400000000000D+01
13 10 12 11 20  0  0.0  .289400108159D-03 -.113686837722D-11  .000000000000D+00
     .690000000000D+02  .418750000000D+02  .373122684915D-08 -.112340418309D+00
     .207684934139D-05  .430517981295D-02  .876933336258D-05  .515367425346D+04
     .590400000000D+06 -.484287738800D-07 -.197472996688D+01 -.931322574615D-08
     .991239545380D+00  .226781250000D+03  .179872161728D+01 -.773567936495D-08
    -.142148778210D-09  .100000000000D+01  .161300000000D+04  .000000000000D+00
     .240000000000D+01  .000000000000D+00 -.107102096081D-07  .690000000000D+02
     .583206000000D+06  .400000000000D+01
14 10 12 11 20  0  0.0  .114774797112D-03  .318323145621D-11  .000000000000D+00
     .670000000000D+02  .267500000000D+02  .397730852801D-08 -.159323319793D+00
     .143237411976D-05  .573142687790D-02  .870600342751D-05  .515360746384D+04
     .590400000000D+06 -.167638063431D-07 -.199783272175D+01  .819563865662D-07
     .984390407240D+00  .226406250000D+03 -.208208970065D+01 -.788639992878D-08
    -.160006664920D-09  .100000000000D+01  .161300000000D+04  .000000000000D+00
     .240000000000D+01  .000000000000D+00 -.884756445885D-08  .670000000000D+02
     .583206000000D+06  .400000000000D+01
15 10 12 11 20  0  0.0 -.173120759428D-03  .420641299570D-11  .000000000000D+00
     .320000000000D+02  .202500000000D+02  .458054794106D-08 -.423511586009D+00
     .102818012238D-05  .314906390850D-02  .901333987713D-05  .515386855125D+04
     .590400000000D+06  .596046447754D-07 -.206825812328D+01 -.614672899246D-07
     .951795831717D+00  .202593750000D+03 -.175592303016D+00 -.812891003030D-08
    -.250010413937D-09  .100000000000D+01  .161300000000D+04  .000000000000D+00
     .240000000000D+01  .000000000000D+00 -.977888703346D-08  .320000000000D+02
     .583206000000D+06  .400000000000D+01
16 10 12 11 20  0  0.0 -.133572146297D-03 -.318323145621D-11  .000000000000D+00
     .660000000000D+02 -.653125000000D+02  .417695970142D-08  .139881117161D+01
    -.328384339809D-05  .592378608417D-02  .569596886635D-05  .515371261406D+04
     .590400000000D+06  .316649675369D-07  .752515521749D-01  .558793544769D-07
     .974593408710D+00  .275156250000D+03 -.165963023655D+00 -.799961893052D-08
    -.112147528538D-09  .100000000000D+01  .161300000000D+04  .000000000000D+00
     .240000000000D+01  .000000000000D+00 -.977888703346D-08  .660000000000D+02
     .583206000000D+06  .400000000000D+01
17 10 12 11 20  0  0.0  .179453752935D-03  .795807864051D-12  .000000000000D+00
     .890000000000D+02 -.304375000000D+02  .446232873105D-08  .360439202814D+00
    -.162422657013D-05  .582347926684D-02  .103805214167D-04  .515369460106D+04
     .590400000000D+06 -.745058059692D-08  .111784145173D+01  .113621354103D-06
     .960516751595D+00  .180781250000D+03 -.250083682580D+01 -.800033324599D-08
     .111076055335D-09  .100000000000D+01  .161300000000D+04  .000000000000D+00
     .240000000000D+01  .000000000000D+00 -.102445483208D-07  .890000000000D+02
     .583206000000D+06  .400000000000D+01
18 10 12 11 20  0  0.0  .109713058919D-03  .216004991671D-11  .000000000000D+00
     .390000000000D+02  .550000000000D+01  .538308136980D-08  .167840283875D+01
     .221654772758D-06  .118225479964D-01  .646710395813D-05  .515374798965D+04
     .590400000000D+06 -.301748514175D-06 -.307843330577D+01 -.745058059692D-08
     .935243308638D+00  .244781250000D+03 -.227964464796D+01 -.855535636493D-08
    -.283940398686D-09  .100000000000D+01  .161300000000D+04  .000000000000D+00
     .240000000000D+01  .000000000000D+00 -.107102096081D-07  .390000000000D+02
     .583206000000D+06  .400000000000D+01
19 10 12 11 20  0  0.0 -.911601819098D-04 -.352429196937D-11  .000000000000D+00
     .370000000000D+02 -.246250000000D+02  .453411743562D-08 -.468241941825D+00
    -.133365392685D-05  .679464277346D-02  .976026058197D-05  .515360009003D+04
     .590400000000D+06  .134110450745D-06  .117234603868D+01 -.558793544769D-07
     .958042338309D+00  .188187500000D+03 -.183118927295D-01 -.803354891527D-08
     .163221084528D-09  .100000000000D+01  .161300000000D+04  .000000000000D+00
     .240000000000D+01  .000000000000D+00 -.149011611938D-07  .370000000000D+02
     .583206000000D+06  .400000000000D+01
20 10 12 11 20  0  0.0  .491305254400D-04 -.113686837722D-12  .000000000000D+00
     .890000000000D+02  .481250000000D+01  .526236205565D-08  .205715901647D+01
     .152736902237D-06  .449827197008D-02  .644288957119D-05  .515377405548D+04
     .590400000000D+06 -.298023223877D-07 -.313235152004D+01 -.987201929092D-07
     .935263918228D+00  .239750000000D+03  .125724934941D+01 -.836892002768D-08
    -.280725979078D-09  .100000000000D+01  .161300000000D+04  .000000000000D+00
     .240000000000D+01  .000000000000D+00 -.791624188423D-08  .890000000000D+02
     .583206000000D+06  .400000000000D+01
